2023-01-18 18:08:29 INFO  Main:11  Starting program
2023-01-18 18:08:29 INFO  Metar:38  Creating Metar Object, airport: EPZG
2023-01-18 18:08:30 INFO  Metar:141 airport metar30 finded, data: METAR EPZG 181630Z VRB02KT 1300 R24/P2000N -SN BR BKN006 OVC010 00/00 Q0997 =
2023-01-18 18:08:30 INFO  Metar:156 airport metar00 finded, data: METAR EPZG 181700Z VRB01KT 0900 R24/P2000N SN FG SCT006 BKN012 OVC017 00/00 Q0997 =
2023-01-18 18:08:30 INFO  Metar:170 metar30 time: 181630Z
2023-01-18 18:08:30 INFO  Metar:177 metar00 time: 181700Z
2023-01-18 18:08:30 INFO  Metar:190 actual metar: [METAR, EPZG, 181700Z, VRB01KT, 0900, R24/P2000N, SN, FG, SCT006, BKN012, OVC017, 00/00, Q0997, =]
2023-01-18 18:08:30 INFO  Metar:57  No cor
2023-01-18 18:08:30 INFO  Metar:77  No auto
2023-01-18 18:08:30 INFO  Metar:90  wind VRB01KT
2023-01-18 18:08:30 INFO  Metar:102 No wind variation
2023-01-18 18:08:30 INFO  Metar:108 Vis 0900
2023-01-18 18:08:30 INFO  Metar:116 No minimal vis
2023-01-18 18:08:30 INFO  Metar:118 [R24/P2000N, SN, FG, SCT006, BKN012, OVC017, 00/00, Q0997, =]
2023-01-18 18:08:55 INFO  Main:11  Starting program
2023-01-18 18:08:55 INFO  Metar:38  Creating Metar Object, airport: EPRZ
2023-01-18 18:08:56 INFO  Metar:141 airport metar30 finded, data: METAR EPRZ 181630Z 24005KT 220V350 CAVOK 03/02 Q0996 =
2023-01-18 18:08:56 INFO  Metar:156 airport metar00 finded, data: METAR EPRZ 181700Z 26010KT 230V290 9999 BKN043 03/02 Q0997 =
2023-01-18 18:08:56 INFO  Metar:170 metar30 time: 181630Z
2023-01-18 18:08:56 INFO  Metar:177 metar00 time: 181700Z
2023-01-18 18:08:56 INFO  Metar:190 actual metar: [METAR, EPRZ, 181700Z, 26010KT, 230V290, 9999, BKN043, 03/02, Q0997, =]
2023-01-18 18:08:56 INFO  Metar:57  No cor
2023-01-18 18:08:56 INFO  Metar:77  No auto
2023-01-18 18:08:56 INFO  Metar:90  wind 26010KT
2023-01-18 18:08:56 INFO  Metar:100 wind var [230, 290]
2023-01-18 18:08:56 INFO  Metar:108 Vis 9999
2023-01-18 18:08:56 INFO  Metar:116 No minimal vis
2023-01-18 18:08:56 INFO  Metar:118 [BKN043, 03/02, Q0997, =]
2023-01-18 18:09:47 INFO  Main:11  Starting program
2023-01-18 18:09:47 INFO  Metar:38  Creating Metar Object, airport: EPKK
2023-01-18 18:09:48 INFO  Metar:141 airport metar30 finded, data: METAR EPKK 181630Z 22006KT 9999 FEW020 BKN030 02/01 Q0996 =
2023-01-18 18:09:48 INFO  Metar:156 airport metar00 finded, data: METAR EPKK 181700Z 23006KT 9999 FEW023 BKN033 02/01 Q0997 =
2023-01-18 18:09:48 INFO  Metar:170 metar30 time: 181630Z
2023-01-18 18:09:48 INFO  Metar:177 metar00 time: 181700Z
2023-01-18 18:09:48 INFO  Metar:190 actual metar: [METAR, EPKK, 181700Z, 23006KT, 9999, FEW023, BKN033, 02/01, Q0997, =]
2023-01-18 18:09:48 INFO  Metar:57  No cor
2023-01-18 18:09:48 INFO  Metar:77  No auto
2023-01-18 18:09:48 INFO  Metar:90  wind 23006KT
2023-01-18 18:09:48 INFO  Metar:102 No wind variation
2023-01-18 18:09:48 INFO  Metar:108 Vis 9999
2023-01-18 18:09:48 INFO  Metar:116 No minimal vis
2023-01-18 18:09:48 INFO  Metar:118 [FEW023, BKN033, 02/01, Q0997, =]
2023-01-18 18:10:06 INFO  Main:11  Starting program
2023-01-18 18:10:06 INFO  Metar:38  Creating Metar Object, airport: EPKT
2023-01-18 18:10:07 INFO  Metar:141 airport metar30 finded, data: METAR EPKT 181630Z 22010KT 9999 BKN009 03/02 Q0995 =
2023-01-18 18:10:07 INFO  Metar:156 airport metar00 finded, data: METAR EPKT 181700Z 23010KT 9000 SCT004 BKN009 03/02 Q0996 =
2023-01-18 18:10:07 INFO  Metar:170 metar30 time: 181630Z
2023-01-18 18:10:07 INFO  Metar:177 metar00 time: 181700Z
2023-01-18 18:10:07 INFO  Metar:190 actual metar: [METAR, EPKT, 181700Z, 23010KT, 9000, SCT004, BKN009, 03/02, Q0996, =]
2023-01-18 18:10:07 INFO  Metar:57  No cor
2023-01-18 18:10:07 INFO  Metar:77  No auto
2023-01-18 18:10:07 INFO  Metar:90  wind 23010KT
2023-01-18 18:10:07 INFO  Metar:102 No wind variation
2023-01-18 18:10:07 INFO  Metar:108 Vis 9000
2023-01-18 18:10:07 INFO  Metar:116 No minimal vis
2023-01-18 18:10:07 INFO  Metar:118 [SCT004, BKN009, 03/02, Q0996, =]
2023-01-18 18:10:17 INFO  Main:11  Starting program
2023-01-18 18:10:17 INFO  Metar:38  Creating Metar Object, airport: EPGD
2023-01-18 18:10:18 INFO  Metar:141 airport metar30 finded, data: METAR EPGD 181630Z 33005KT 300V010 CAVOK 02/00 Q0994 =
2023-01-18 18:10:18 INFO  Metar:156 airport metar00 finded, data: METAR EPGD 181700Z 32007KT CAVOK 01/00 Q0995 =
2023-01-18 18:10:18 INFO  Metar:170 metar30 time: 181630Z
2023-01-18 18:10:18 INFO  Metar:177 metar00 time: 181700Z
2023-01-18 18:10:18 INFO  Metar:190 actual metar: [METAR, EPGD, 181700Z, 32007KT, CAVOK, 01/00, Q0995, =]
2023-01-18 18:10:18 INFO  Metar:57  No cor
2023-01-18 18:10:18 INFO  Metar:77  No auto
2023-01-18 18:10:18 INFO  Metar:90  wind 32007KT
2023-01-18 18:10:18 INFO  Metar:102 No wind variation
2023-01-18 18:10:18 ERROR Metar:110 Visibility not found
2023-01-18 18:10:18 INFO  Metar:116 No minimal vis
2023-01-18 18:10:18 INFO  Metar:118 [CAVOK, 01/00, Q0995, =]
2023-01-18 18:12:01 INFO  Main:11  Starting program
2023-01-18 18:12:01 INFO  Metar:38  Creating Metar Object, airport: EPWR
2023-01-18 18:12:02 INFO  Metar:141 airport metar30 finded, data: METAR EPWR 181630Z VRB02KT 5000 BR BKN004 BKN020 02/01 Q0996 =
2023-01-18 18:12:02 INFO  Metar:156 airport metar00 finded, data: METAR EPWR 181700Z VRB02KT 5000 BR BKN006 BKN008 02/01 Q0996 =
2023-01-18 18:12:02 INFO  Metar:170 metar30 time: 181630Z
2023-01-18 18:12:02 INFO  Metar:177 metar00 time: 181700Z
2023-01-18 18:12:02 INFO  Metar:190 actual metar: [METAR, EPWR, 181700Z, VRB02KT, 5000, BR, BKN006, BKN008, 02/01, Q0996, =]
2023-01-18 18:12:02 INFO  Metar:57  No cor
2023-01-18 18:12:02 INFO  Metar:77  No auto
2023-01-18 18:12:02 INFO  Metar:90  wind VRB02KT
2023-01-18 18:12:02 INFO  Metar:102 No wind variation
2023-01-18 18:12:02 INFO  Metar:108 Vis 5000
2023-01-18 18:12:48 INFO  Main:11  Starting program
2023-01-18 18:12:48 INFO  Metar:38  Creating Metar Object, airport: EPWR
2023-01-18 18:12:49 INFO  Metar:141 airport metar30 finded, data: METAR EPWR 181630Z VRB02KT 5000 BR BKN004 BKN020 02/01 Q0996 =
2023-01-18 18:12:49 INFO  Metar:156 airport metar00 finded, data: METAR EPWR 181700Z VRB02KT 5000 BR BKN006 BKN008 02/01 Q0996 =
2023-01-18 18:12:49 INFO  Metar:170 metar30 time: 181630Z
2023-01-18 18:12:49 INFO  Metar:177 metar00 time: 181700Z
2023-01-18 18:12:49 INFO  Metar:190 actual metar: [METAR, EPWR, 181700Z, VRB02KT, 5000, BR, BKN006, BKN008, 02/01, Q0996, =]
2023-01-18 18:12:49 INFO  Metar:57  No cor
2023-01-18 18:12:49 INFO  Metar:77  No auto
2023-01-18 18:12:49 INFO  Metar:90  wind VRB02KT
2023-01-18 18:12:49 INFO  Metar:102 No wind variation
2023-01-18 18:12:49 INFO  Metar:108 Vis 5000
2023-01-18 18:12:49 INFO  Metar:111 [BR, BKN006, BKN008, 02/01, Q0996, =]
2023-01-18 18:13:26 INFO  Main:11  Starting program
2023-01-18 18:13:26 INFO  Metar:38  Creating Metar Object, airport: EPZG
2023-01-18 18:13:27 INFO  Metar:141 airport metar30 finded, data: METAR EPZG 181630Z VRB02KT 1300 R24/P2000N -SN BR BKN006 OVC010 00/00 Q0997 =
2023-01-18 18:13:27 INFO  Metar:156 airport metar00 finded, data: METAR EPZG 181700Z VRB01KT 0900 R24/P2000N SN FG SCT006 BKN012 OVC017 00/00 Q0997 =
2023-01-18 18:13:27 INFO  Metar:170 metar30 time: 181630Z
2023-01-18 18:13:27 INFO  Metar:177 metar00 time: 181700Z
2023-01-18 18:13:27 INFO  Metar:190 actual metar: [METAR, EPZG, 181700Z, VRB01KT, 0900, R24/P2000N, SN, FG, SCT006, BKN012, OVC017, 00/00, Q0997, =]
2023-01-18 18:13:27 INFO  Metar:57  No cor
2023-01-18 18:13:27 INFO  Metar:77  No auto
2023-01-18 18:13:27 INFO  Metar:90  wind VRB01KT
2023-01-18 18:13:27 INFO  Metar:102 No wind variation
2023-01-18 18:13:27 INFO  Metar:108 Vis 0900
2023-01-18 18:13:27 INFO  Metar:116 No minimal vis
2023-01-18 18:13:27 INFO  Metar:118 [R24/P2000N, SN, FG, SCT006, BKN012, OVC017, 00/00, Q0997, =]
2023-01-18 18:14:12 INFO  Main:11  Starting program
2023-01-18 18:14:12 INFO  Metar:38  Creating Metar Object, airport: EPWR
2023-01-18 18:14:13 INFO  Metar:141 airport metar30 finded, data: METAR EPWR 181630Z VRB02KT 5000 BR BKN004 BKN020 02/01 Q0996 =
2023-01-18 18:14:13 INFO  Metar:156 airport metar00 finded, data: METAR EPWR 181700Z VRB02KT 5000 BR BKN006 BKN008 02/01 Q0996 =
2023-01-18 18:14:13 INFO  Metar:170 metar30 time: 181630Z
2023-01-18 18:14:13 INFO  Metar:177 metar00 time: 181700Z
2023-01-18 18:14:13 INFO  Metar:190 actual metar: [METAR, EPWR, 181700Z, VRB02KT, 5000, BR, BKN006, BKN008, 02/01, Q0996, =]
2023-01-18 18:14:13 INFO  Metar:57  No cor
2023-01-18 18:14:13 INFO  Metar:77  No auto
2023-01-18 18:14:13 INFO  Metar:90  wind VRB02KT
2023-01-18 18:14:13 INFO  Metar:102 No wind variation
2023-01-18 18:14:13 INFO  Metar:108 Vis 5000
2023-01-18 18:14:13 INFO  Metar:116 No minimal vis
2023-01-18 18:14:13 INFO  Metar:118 [BR, BKN006, BKN008, 02/01, Q0996, =]
