2023-01-12 11:04:52 INFO  Main:11  Starting program
2023-01-12 11:04:52 INFO  Metar:32  Creating Metar Object, airport: EPSC
2023-01-12 11:04:52 INFO  Metar:88  airport metar30 finded, data: METAR EPSC 120930Z 17010KT 9999 BKN027 07/05 Q1007 =
2023-01-12 11:04:52 INFO  Metar:103 airport metar00 finded, data: METAR EPSC 121000Z 17010KT 150V220 9999 -RA FEW014 BKN032 07/05 Q1007 =
2023-01-12 11:04:52 INFO  Metar:117 metar30 time: 120930Z
2023-01-12 11:04:52 INFO  Metar:124 metar00 time: 121000Z
2023-01-12 11:04:52 INFO  Metar:137 actual metar: [METAR, EPSC, 121000Z, 17010KT, 150V220, 9999, -RA, FEW014, BKN032, 07/05, Q1007, =]
2023-01-12 11:04:52 INFO  Metar:67  [17010KT, 150V220, 9999, -RA, FEW014, BKN032, 07/05, Q1007, =]
2023-01-12 11:55:31 INFO  Main:11  Starting program
2023-01-12 11:55:31 INFO  Metar:32  Creating Metar Object, airport: EPSC
2023-01-12 11:55:32 INFO  Metar:93  airport metar30 finded, data: METAR EPSC 121030Z 17012KT 9999 -RA FEW032 BKN044 07/05 Q1006 =
2023-01-12 11:55:32 INFO  Metar:108 airport metar00 finded, data: METAR EPSC 121000Z 17010KT 150V220 9999 -RA FEW014 BKN032 07/05 Q1007 =
2023-01-12 11:55:32 INFO  Metar:122 metar30 time: 121030Z
2023-01-12 11:55:32 INFO  Metar:129 metar00 time: 121000Z
2023-01-12 11:55:32 INFO  Metar:142 actual metar: [METAR, EPSC, 121030Z, 17012KT, 9999, -RA, FEW032, BKN044, 07/05, Q1006, =]
2023-01-12 11:55:32 INFO  Metar:72  [17012KT, 9999, -RA, FEW032, BKN044, 07/05, Q1006, =]
2023-01-12 12:09:20 INFO  Main:11  Starting program
2023-01-12 12:09:20 INFO  Metar:32  Creating Metar Object, airport: EPML
2023-01-12 12:09:21 INFO  Metar:93  airport metar30 finded, data: METAR EPML 121030Z AUTO 23008KT 9999 ///////// 07/04 Q1018=
2023-01-12 12:09:21 INFO  Metar:108 airport metar00 finded, data: METAR EPML 121100Z AUTO 23008KT 9999 ///////// 08/04 Q1018=
2023-01-12 12:09:21 INFO  Metar:122 metar30 time: 121030Z
2023-01-12 12:09:21 INFO  Metar:129 metar00 time: 121100Z
2023-01-12 12:09:21 INFO  Metar:142 actual metar: [METAR, EPML, 121100Z, AUTO, 23008KT, 9999, /////////, 08/04, Q1018=]
2023-01-12 12:09:21 INFO  Metar:72  [23008KT, 9999, /////////, 08/04, Q1018=]
2023-01-12 12:09:32 INFO  Main:11  Starting program
2023-01-12 12:09:32 INFO  Metar:32  Creating Metar Object, airport: EPSC
2023-01-12 12:09:33 INFO  Metar:93  airport metar30 finded, data: METAR EPSC 121030Z 17012KT 9999 -RA FEW032 BKN044 07/05 Q1006 =
2023-01-12 12:09:33 INFO  Metar:108 airport metar00 finded, data: METAR EPSC 121100Z 17012KT 9999 -RA SCT015 BKN046 08/06 Q1005 =
2023-01-12 12:09:33 INFO  Metar:122 metar30 time: 121030Z
2023-01-12 12:09:33 INFO  Metar:129 metar00 time: 121100Z
2023-01-12 12:09:33 INFO  Metar:142 actual metar: [METAR, EPSC, 121100Z, 17012KT, 9999, -RA, SCT015, BKN046, 08/06, Q1005, =]
2023-01-12 12:09:33 INFO  Metar:72  [17012KT, 9999, -RA, SCT015, BKN046, 08/06, Q1005, =]
2023-01-12 12:18:10 INFO  Main:11  Starting program
2023-01-12 12:18:10 INFO  Metar:36  Creating Metar Object, airport: EPSC
2023-01-12 12:18:11 INFO  Metar:104 airport metar30 finded, data: METAR EPSC 121030Z 17012KT 9999 -RA FEW032 BKN044 07/05 Q1006 =
2023-01-12 12:18:11 INFO  Metar:119 airport metar00 finded, data: METAR EPSC 121100Z 17012KT 9999 -RA SCT015 BKN046 08/06 Q1005 =
2023-01-12 12:18:11 INFO  Metar:133 metar30 time: 121030Z
2023-01-12 12:18:11 INFO  Metar:140 metar00 time: 121100Z
2023-01-12 12:18:11 INFO  Metar:153 actual metar: [METAR, EPSC, 121100Z, 17012KT, 9999, -RA, SCT015, BKN046, 08/06, Q1005, =]
2023-01-12 12:18:11 INFO  Metar:82  [17012KT, 9999, -RA, SCT015, BKN046, 08/06, Q1005, =]
2023-01-12 12:18:11 INFO  Metar:83  17
2023-01-12 12:18:47 INFO  Main:11  Starting program
2023-01-12 12:18:47 INFO  Metar:36  Creating Metar Object, airport: EPSC
2023-01-12 12:18:47 INFO  Metar:105 airport metar30 finded, data: METAR EPSC 121030Z 17012KT 9999 -RA FEW032 BKN044 07/05 Q1006 =
2023-01-12 12:18:47 INFO  Metar:120 airport metar00 finded, data: METAR EPSC 121100Z 17012KT 9999 -RA SCT015 BKN046 08/06 Q1005 =
2023-01-12 12:18:47 INFO  Metar:134 metar30 time: 121030Z
2023-01-12 12:18:47 INFO  Metar:141 metar00 time: 121100Z
2023-01-12 12:18:47 INFO  Metar:154 actual metar: [METAR, EPSC, 121100Z, 17012KT, 9999, -RA, SCT015, BKN046, 08/06, Q1005, =]
2023-01-12 12:18:47 INFO  Metar:83  [17012KT, 9999, -RA, SCT015, BKN046, 08/06, Q1005, =]
2023-01-12 12:18:47 INFO  Metar:84  12
2023-01-12 12:20:08 INFO  Main:11  Starting program
2023-01-12 12:20:08 INFO  Metar:36  Creating Metar Object, airport: EPRZ
2023-01-12 12:20:09 INFO  Metar:108 airport metar30 finded, data: METAR EPRZ 121030Z 21010G25KT 160V280 9999 OVC016 06/03 Q1019 =
2023-01-12 12:20:09 INFO  Metar:123 airport metar00 finded, data: METAR EPRZ 121100Z 21013KT 9999 BKN018 06/03 Q1019 =
2023-01-12 12:20:09 INFO  Metar:137 metar30 time: 121030Z
2023-01-12 12:20:09 INFO  Metar:144 metar00 time: 121100Z
2023-01-12 12:20:09 INFO  Metar:157 actual metar: [METAR, EPRZ, 121100Z, 21013KT, 9999, BKN018, 06/03, Q1019, =]
2023-01-12 12:20:09 INFO  Metar:85  [21013KT, 9999, BKN018, 06/03, Q1019, =]
2023-01-12 12:20:09 INFO  Metar:87  13
2023-01-12 12:20:40 INFO  Main:11  Starting program
2023-01-12 12:20:40 INFO  Metar:36  Creating Metar Object, airport: EPRZ
2023-01-12 12:20:41 INFO  Metar:108 airport metar30 finded, data: METAR EPRZ 121030Z 21010G25KT 160V280 9999 OVC016 06/03 Q1019 =
2023-01-12 12:20:41 INFO  Metar:123 airport metar00 finded, data: METAR EPRZ 121100Z 21013KT 9999 BKN018 06/03 Q1019 =
2023-01-12 12:20:41 INFO  Metar:137 metar30 time: 121030Z
2023-01-12 12:20:41 INFO  Metar:144 metar00 time: 121100Z
2023-01-12 12:20:41 INFO  Metar:157 actual metar: [METAR, EPRZ, 121030Z, 21010G25KT, 160V280, 9999, OVC016, 06/03, Q1019, =]
2023-01-12 12:20:41 INFO  Metar:85  [21010G25KT, 160V280, 9999, OVC016, 06/03, Q1019, =]
2023-01-12 12:20:41 INFO  Metar:87  25
2023-01-12 12:21:04 INFO  Main:11  Starting program
2023-01-12 12:21:04 INFO  Metar:36  Creating Metar Object, airport: EPRZ
2023-01-12 12:21:05 INFO  Metar:109 airport metar30 finded, data: METAR EPRZ 121030Z 21010G25KT 160V280 9999 OVC016 06/03 Q1019 =
2023-01-12 12:21:05 INFO  Metar:124 airport metar00 finded, data: METAR EPRZ 121100Z 21013KT 9999 BKN018 06/03 Q1019 =
2023-01-12 12:21:05 INFO  Metar:138 metar30 time: 121030Z
2023-01-12 12:21:05 INFO  Metar:145 metar00 time: 121100Z
2023-01-12 12:21:05 INFO  Metar:158 actual metar: [METAR, EPRZ, 121100Z, 21013KT, 9999, BKN018, 06/03, Q1019, =]
2023-01-12 12:21:05 INFO  Metar:86  [9999, BKN018, 06/03, Q1019, =]
2023-01-12 12:21:21 INFO  Main:11  Starting program
2023-01-12 12:21:21 INFO  Metar:36  Creating Metar Object, airport: EPSC
2023-01-12 12:21:22 INFO  Metar:109 airport metar30 finded, data: METAR EPSC 121030Z 17012KT 9999 -RA FEW032 BKN044 07/05 Q1006 =
2023-01-12 12:21:22 INFO  Metar:124 airport metar00 finded, data: METAR EPSC 121100Z 17012KT 9999 -RA SCT015 BKN046 08/06 Q1005 =
2023-01-12 12:21:22 INFO  Metar:138 metar30 time: 121030Z
2023-01-12 12:21:22 INFO  Metar:145 metar00 time: 121100Z
2023-01-12 12:21:22 INFO  Metar:158 actual metar: [METAR, EPSC, 121100Z, 17012KT, 9999, -RA, SCT015, BKN046, 08/06, Q1005, =]
2023-01-12 12:21:22 INFO  Metar:86  [9999, -RA, SCT015, BKN046, 08/06, Q1005, =]
2023-01-12 12:29:23 INFO  Main:11  Starting program
2023-01-12 12:29:23 INFO  Metar:39  Creating Metar Object, airport: EPSC
2023-01-12 12:29:24 INFO  Metar:119 airport metar30 finded, data: METAR EPSC 121030Z 17012KT 9999 -RA FEW032 BKN044 07/05 Q1006 =
2023-01-12 12:29:24 INFO  Metar:134 airport metar00 finded, data: METAR EPSC 121100Z 17012KT 9999 -RA SCT015 BKN046 08/06 Q1005 =
2023-01-12 12:29:24 INFO  Metar:148 metar30 time: 121030Z
2023-01-12 12:29:24 INFO  Metar:155 metar00 time: 121100Z
2023-01-12 12:29:24 INFO  Metar:168 actual metar: [METAR, EPSC, 121100Z, 17012KT, 9999, -RA, SCT015, BKN046, 08/06, Q1005, =]
2023-01-12 12:29:24 INFO  Metar:96  [-RA, SCT015, BKN046, 08/06, Q1005, =]
2023-01-12 12:29:24 WARN  Metar:98  9999
2023-01-12 12:35:59 INFO  Main:11  Starting program
2023-01-12 12:35:59 INFO  Metar:41  Creating Metar Object, airport: EPZG
2023-01-12 12:36:00 INFO  Metar:128 airport metar30 finded, data: METAR EPZG 121130Z 19011KT 140V220 9999 FEW038 09/06 Q1011 =
2023-01-12 12:36:00 INFO  Metar:143 airport metar00 finded, data: METAR EPZG 121100Z 19016KT 9999 FEW038 09/05 Q1011 =
2023-01-12 12:36:00 INFO  Metar:157 metar30 time: 121130Z
2023-01-12 12:36:00 INFO  Metar:164 metar00 time: 121100Z
2023-01-12 12:36:00 INFO  Metar:177 actual metar: [METAR, EPZG, 121130Z, 19011KT, 140V220, 9999, FEW038, 09/06, Q1011, =]
2023-01-12 12:36:14 INFO  Main:11  Starting program
2023-01-12 12:36:14 INFO  Metar:41  Creating Metar Object, airport: EPZG
2023-01-12 12:36:15 INFO  Metar:128 airport metar30 finded, data: METAR EPZG 121130Z 19011KT 140V220 9999 FEW038 09/06 Q1011 =
2023-01-12 12:36:15 INFO  Metar:143 airport metar00 finded, data: METAR EPZG 121100Z 19016KT 9999 FEW038 09/05 Q1011 =
2023-01-12 12:36:15 INFO  Metar:157 metar30 time: 121130Z
2023-01-12 12:36:15 INFO  Metar:164 metar00 time: 121100Z
2023-01-12 12:36:15 INFO  Metar:177 actual metar: [METAR, EPZG, 121130Z, 19011KT, 140V220, 9999, FEW038, 09/06, Q1011, =]
2023-01-12 12:36:15 INFO  Metar:106 [FEW038, 09/06, Q1011, =]
2023-01-12 12:36:15 INFO  Metar:107 [Ljava.lang.String;@463b4ac8
2023-01-12 12:36:25 INFO  Main:11  Starting program
2023-01-12 12:36:25 INFO  Metar:38  Creating Metar Object, airport: EPZG
2023-01-12 12:36:25 INFO  Metar:125 airport metar30 finded, data: METAR EPZG 121130Z 19011KT 140V220 9999 FEW038 09/06 Q1011 =
2023-01-12 12:36:25 INFO  Metar:140 airport metar00 finded, data: METAR EPZG 121100Z 19016KT 9999 FEW038 09/05 Q1011 =
2023-01-12 12:36:25 INFO  Metar:154 metar30 time: 121130Z
2023-01-12 12:36:25 INFO  Metar:161 metar00 time: 121100Z
2023-01-12 12:36:25 INFO  Metar:174 actual metar: [METAR, EPZG, 121130Z, 19011KT, 140V220, 9999, FEW038, 09/06, Q1011, =]
2023-01-12 12:36:25 INFO  Metar:103 [FEW038, 09/06, Q1011, =]
2023-01-12 12:36:25 INFO  Metar:104 [140, 220]
2023-01-12 12:36:44 INFO  Main:11  Starting program
2023-01-12 12:36:44 INFO  Metar:38  Creating Metar Object, airport: EPZG
2023-01-12 12:36:45 INFO  Metar:125 airport metar30 finded, data: METAR EPZG 121130Z 19011KT 140V220 9999 FEW038 09/06 Q1011 =
2023-01-12 12:36:45 INFO  Metar:140 airport metar00 finded, data: METAR EPZG 121100Z 19016KT 9999 FEW038 09/05 Q1011 =
2023-01-12 12:36:45 INFO  Metar:154 metar30 time: 121130Z
2023-01-12 12:36:45 INFO  Metar:161 metar00 time: 121100Z
2023-01-12 12:36:45 INFO  Metar:174 actual metar: [METAR, EPZG, 121130Z, 19011KT, 140V220, 9999, FEW038, 09/06, Q1011, =]
2023-01-12 12:36:45 INFO  Metar:103 [FEW038, 09/06, Q1011, =]
2023-01-12 12:36:45 INFO  Metar:104 140
2023-01-12 13:03:27 INFO  Main:11  Starting program
2023-01-12 13:03:27 INFO  Metar:38  Creating Metar Object, airport: EPZG
2023-01-12 13:03:28 INFO  Metar:126 airport metar30 finded, data: METAR EPZG 121130Z 19011KT 140V220 9999 FEW038 09/06 Q1011 =
2023-01-12 13:03:28 INFO  Metar:141 airport metar00 finded, data: METAR EPZG 121200Z 19011KT 160V220 9999 FEW038 09/06 Q1010 =
2023-01-12 13:03:28 INFO  Metar:155 metar30 time: 121130Z
2023-01-12 13:03:28 INFO  Metar:162 metar00 time: 121200Z
2023-01-12 13:03:28 INFO  Metar:175 actual metar: [METAR, EPZG, 121200Z, 19011KT, 160V220, 9999, FEW038, 09/06, Q1010, =]
2023-01-12 13:03:28 INFO  Metar:103 [FEW038, 09/06, Q1010, =]
2023-01-12 13:03:28 INFO  Metar:105 [Ljava.lang.String;@f001896
2023-01-12 13:08:49 INFO  Main:11  Starting program
2023-01-12 13:08:49 INFO  Metar:38  Creating Metar Object, airport: EPZG
2023-01-12 13:08:50 INFO  Metar:132 airport metar30 finded, data: METAR EPZG 121130Z 19011KT 140V220 9999 FEW038 09/06 Q1011 =
2023-01-12 13:08:50 INFO  Metar:147 airport metar00 finded, data: METAR EPZG 121200Z 19011KT 160V220 9999 FEW038 09/06 Q1010 =
2023-01-12 13:08:50 INFO  Metar:161 metar30 time: 121130Z
2023-01-12 13:08:50 INFO  Metar:168 metar00 time: 121200Z
2023-01-12 13:08:50 INFO  Metar:181 actual metar: [METAR, EPZG, 121200Z, 19011KT, 160V220, 9999, FEW038, 09/06, Q1010, =]
2023-01-12 13:08:50 INFO  Metar:109 [FEW038, 09/06, Q1010, =]
2023-01-12 13:10:12 INFO  Main:11  Starting program
2023-01-12 13:10:12 INFO  Metar:38  Creating Metar Object, airport: EPZG
2023-01-12 13:10:13 INFO  Metar:132 airport metar30 finded, data: METAR EPZG 121130Z 19011KT 140V220 9999 FEW038 09/06 Q1011 =
2023-01-12 13:10:13 INFO  Metar:147 airport metar00 finded, data: METAR EPZG 121200Z 19011KT 160V220 9999 FEW038 09/06 Q1010 =
2023-01-12 13:10:13 INFO  Metar:161 metar30 time: 121130Z
2023-01-12 13:10:13 INFO  Metar:168 metar00 time: 121200Z
2023-01-12 13:10:13 INFO  Metar:181 actual metar: [METAR, EPZG, 121200Z, 19011KT, 160V220, 9999, FEW038, 09/06, Q1010, =]
2023-01-12 13:10:13 INFO  Metar:56  No cor
2023-01-12 13:10:13 INFO  Metar:74  No auto
2023-01-12 13:10:13 INFO  Metar:107 No minimal vis
2023-01-12 13:10:13 INFO  Metar:109 [FEW038, 09/06, Q1010, =]
2023-01-12 13:14:16 INFO  Main:11  Starting program
2023-01-12 13:14:16 INFO  Metar:38  Creating Metar Object, airport: EPZG
2023-01-12 13:14:17 INFO  Metar:141 airport metar30 finded, data: METAR EPZG 121130Z 19011KT 140V220 9999 FEW038 09/06 Q1011 =
2023-01-12 13:14:17 INFO  Metar:156 airport metar00 finded, data: METAR EPZG 121200Z 19011KT 160V220 9999 FEW038 09/06 Q1010 =
2023-01-12 13:14:17 INFO  Metar:170 metar30 time: 121130Z
2023-01-12 13:14:17 INFO  Metar:177 metar00 time: 121200Z
2023-01-12 13:14:17 INFO  Metar:190 actual metar: [METAR, EPZG, 121200Z, 19011KT, 160V220, 9999, FEW038, 09/06, Q1010, =]
2023-01-12 13:14:17 INFO  Metar:57  No cor
2023-01-12 13:14:17 INFO  Metar:77  No auto
2023-01-12 13:14:17 INFO  Metar:90  wind 19011KT
2023-01-12 13:14:17 INFO  Metar:100 wind var [160, 220]
2023-01-12 13:14:17 INFO  Metar:108 Vis 9999
2023-01-12 13:14:17 INFO  Metar:116 No minimal vis
2023-01-12 13:14:17 INFO  Metar:118 [FEW038, 09/06, Q1010, =]
